0 SL-8 R/B
1 32751U 08014B   13282.40018115  .00026274  00000-0  58369-3 0  6483
2 32751 098.1237 196.7002 0018246 346.2734 150.1556 15.43502179308837
0 SL-8 R/B
1 32751U 08014B   13283.37311762  .00025444  00000-0  56467-3 0  6490
2 32751 098.1238 197.7858 0018118 342.5963 156.6632 15.43542373308981
0 SL-8 R/B
1 32751U 08014B   13283.67219395  .00048573  00000-0  10770-2 0  6508
2 32751 098.1252 198.1183 0018109 339.5552 020.5487 15.43553733309039
0 SL-8 R/B
1 32751U 08014B   13283.87385037  .00022867  00000-0  50762-3 0  6501
2 32751 098.1239 198.3444 0018037 340.6454 059.2992 15.43559794309066
0 SL-8 R/B
1 32751U 08014B   13285.25652367  .00020636  00000-0  45766-3 0  6519
2 32751 098.1239 199.8871 0017754 335.4955 182.9340 15.43615952309272
0 SL-8 R/B
1 32751U 08014B   13286.35063895  .00020015  00000-0  44344-3 0  6526
2 32751 098.1241 201.1078 0017596 331.3175 143.3253 15.43656956309446
0 SL-8 R/B
1 32751U 08014B   13287.39123411  .00021789  00000-0  48179-3 0  6532
2 32751 098.1244 202.2693 0017519 327.4309 166.3515 15.43697199309602
0 SL-8 R/B
1 32751U 08014B   13288.36029080  .00029920  00000-0  65888-3 0  6549
2 32751 098.1248 203.3506 0017410 323.6315 152.1503 15.43751081309753
0 SL-8 R/B
1 32751U 08014B   13289.40114328  .00027000  00000-0  59400-3 0  6556
2 32751 098.1250 204.5122 0017265 319.6155 177.1156 15.43805129309910
0 SL-8 R/B
1 32751U 08014B   13290.68323216  .00028652  00000-0  62892-3 0  6560
2 32751 098.1252 205.9432 0017118 314.6631 103.1084 15.43862252310115
0 SL-8 R/B
1 32751U 08014B   13291.78591093  .00026156  00000-0  57353-3 0  6576
2 32751 098.1250 207.1744 0016968 310.7512 111.8049 15.43915870310280
0 SL-8 R/B
1 32751U 08014B   13293.41912098  .00026405  00000-0  57758-3 0  6587
2 32751 098.1251 208.9974 0016772 303.7731 190.7517 15.43989557310530
0 SL-8 R/B
1 32751U 08014B   13294.70213442  .00029447  00000-0  64244-3 0  6595
2 32751 098.1247 210.4300 0016650 298.5809 122.9836 15.44045591310733
0 SL-8 R/B
1 32751U 08014B   13295.79844078  .00027108  00000-0  59081-3 0  6607
2 32751 098.1245 211.6544 0016614 294.2760 097.3880 15.44094635310909
